{"type": "Feature", "properties": {"name": "City of Stuart"}, "geometry": {"type": "MultiPolygon", "coordinates": [[[[-80.26425132199265, 27.241316740317217], [-80.26441882806704, 27.242052072115854], [-80.26409481254547, 27.24265278511958], [-80.26457889743398, 27.242982668246754], [-80.26481219190022, 27.2435422966497], [-80.2647137127791, 27.24354177955939], [-80.26470097271434, 27.244075359146716], [-80.26387256785728, 27.244623908187144], [-80.26374820045493, 27.244815807107532], [-80.2638981837382, 27.244940379612927], [-80.26387459564042, 27.24525109084073], [-80.26758896475255, 27.2453008275443], [-80.26776803883261, 27.24474336071941], [-80.26834993875372, 27.244237512643277], [-80.26855220617121, 27.24389747560089], [-80.2686001041972, 27.241749384682365], [-80.26830663116112, 27.24097763947643], [-80.26821576557916, 27.240283973752835], [-80.26761067480555, 27.23963438239465], [-80.26742862627076, 27.239237321060454], [-80.268951608204, 27.238821662941813], [-80.26953320860768, 27.23882744858207], [-80.26786334631947, 27.234412012561364], [-80.26695864269925, 27.234407280362806], [-80.26698602793306, 27.232575417598238], [-80.26717065828603, 27.23257638373171], [-80.26648099732778, 27.23075177022999], [-80.26599175300305, 27.230746456527147], [-80.26597959162565, 27.231662396017445], [-80.2649677343849, 27.231577317661863], [-80.26491233362718, 27.23204740684832], [-80.26464091600545, 27.23260988783092], [-80.2644117228046, 27.232834246591686], [-80.26402370899933, 27.23287622040012], [-80.2640245250576, 27.23322006956374], [-80.26383989377331, 27.233219099262193], [-80.26360354758691, 27.2331270817851], [-80.26341784881771, 27.232820771088523], [-80.26349903202299, 27.23264239867402], [-80.26350676119932, 27.231935494225237], [-80.26365379428644, 27.231570416283784], [-80.26364038116796, 27.231270512983873], [-80.26352536864482, 27.230978327781358], [-80.26256762891394, 27.2301535624374], [-80.26233018911417, 27.22976170432788], [-80.26179730801884, 27.22984141976773], [-80.26172301140289, 27.229442168067962], [-80.26134416720998, 27.229495185997223], [-80.2612492950716, 27.22895003529535], [-80.26308784487064, 27.228725905016482], [-80.26389322171286, 27.228853923846316], [-80.26519538885181, 27.229243116529883], [-80.26565389179069, 27.229242770237533], [-80.26588512380049, 27.22917521325984], [-80.26546468420509, 27.228064452379293], [-80.26910472532931, 27.22809999706556], [-80.26914205091147, 27.22709616333891], [-80.26915179660422, 27.226546061534282], [-80.26904104227059, 27.226542732898338], [-80.26677949609147, 27.226522661602182], [-80.26689445884644, 27.226823096399475], [-80.26674062615304, 27.226819540490148], [-80.26683435619199, 27.22707310122352], [-80.26508054486808, 27.227050157293732], [-80.2636983363054, 27.22339538863906], [-80.26554139252511, 27.223407813893164], [-80.26554663472767, 27.223077749774742], [-80.26491993143811, 27.222455541139315], [-80.26489947674223, 27.2222903880076], [-80.26501818606071, 27.222018685233426], [-80.26383369559673, 27.22199596165244], [-80.26399699025839, 27.22243144018545], [-80.2622247373834, 27.22241661696153], [-80.26222955853277, 27.221684939497624], [-80.26305720040669, 27.221694796937935], [-80.26233163566997, 27.219735185918914], [-80.26279317625946, 27.21973486441185], [-80.26295347746368, 27.22015657462267], [-80.26410111654162, 27.220165357989217], [-80.26410697720625, 27.219741771101578], [-80.26395928995694, 27.21974099532004], [-80.2639320325407, 27.21967483378444], [-80.26432204253774, 27.2193220335899], [-80.2643111448696, 27.219107416741284], [-80.26454834755825, 27.21906464981104], [-80.26455722896354, 27.218649330963633], [-80.26409571078452, 27.21864690770203], [-80.26409865715173, 27.21819854853413], [-80.26327715822484, 27.218194231450536], [-80.26258463967281, 27.216358579225645], [-80.26516599376147, 27.216374891272093], [-80.26509149162953, 27.191144431657346], [-80.26454831400586, 27.18250414357588], [-80.2630612959783, 27.17802907212633], [-80.26258389414897, 27.17719307657369], [-80.2572047337891, 27.17714268550863], [-80.25718642852272, 27.17990712002152], [-80.25695267384047, 27.179905881748457], [-80.25694429179944, 27.18117119462341], [-80.25323813819959, 27.181132253619378], [-80.25325277122906, 27.177548070649138], [-80.25293599738751, 27.177543632940274], [-80.25292704696136, 27.177040193168818], [-80.25249647599308, 27.17703514830438], [-80.25249470165956, 27.176839833719058], [-80.25264848327375, 27.176840653219244], [-80.25264720342389, 27.176571070291967], [-80.25301933574785, 27.176575803449364], [-80.25302600225787, 27.175574556128584], [-80.25389947216863, 27.175579205141343], [-80.25390331357859, 27.175001562275696], [-80.2527469129446, 27.17499265555088], [-80.2523824729676, 27.17291112568075], [-80.25147830559258, 27.172900802168368], [-80.2519117372548, 27.175703405657664], [-80.25081378472449, 27.175692043833113], [-80.25081034978025, 27.176206420639776], [-80.25062581296486, 27.176205434822172], [-80.2506284587151, 27.175809337194334], [-80.25049928340589, 27.175808646989267], [-80.25049434010165, 27.17654857932332], [-80.2499838051382, 27.176543099442185], [-80.24998012719365, 27.177093234891387], [-80.24894675000799, 27.17708220355064], [-80.24893787363484, 27.17932678814454], [-80.2448719329372, 27.179285699751663], [-80.2448926864938, 27.17574556608548], [-80.24295476402555, 27.175779132082162], [-80.24295969571973, 27.17550408135698], [-80.24319653462427, 27.17550260868482], [-80.24320330259846, 27.174955241239036], [-80.24389528827369, 27.174961723938765], [-80.24390924340321, 27.173803723195384], [-80.24705535905909, 27.17384540354562], [-80.2470689432251, 27.17548768933988], [-80.24717310726537, 27.17554876550927], [-80.24793276039497, 27.175555591519945], [-80.24793911806958, 27.175065987585853], [-80.24834406467421, 27.174762822132497], [-80.24897144466351, 27.17477168431906], [-80.24899891703527, 27.172045811866948], [-80.25218800857903, 27.172093108002922], [-80.25161029906309, 27.17017273446266], [-80.25092998217804, 27.168422358794], [-80.24500991527101, 27.1683796201535], [-80.2450430408653, 27.170770223244403], [-80.24533388231053, 27.17142647291373], [-80.24587430450448, 27.172015294567746], [-80.24291586484001, 27.171971850767797], [-80.24289127596383, 27.173792730756254], [-80.24204250082973, 27.173777143741816], [-80.2420013664413, 27.17576848141081], [-80.2416969011, 27.175764084911467], [-80.24171904853644, 27.173852417208], [-80.24075340271553, 27.173836190539387], [-80.24077240549856, 27.17284601493517], [-80.24086467093278, 27.172846514299124], [-80.2409443197423, 27.168346678038617], [-80.23992942214427, 27.16834393378573], [-80.24006511184808, 27.168289653381283], [-80.23903329987476, 27.166245735829875], [-80.2414969602266, 27.165301807022853], [-80.24155762997115, 27.16542591997387], [-80.24348478016066, 27.164682611787065], [-80.2447314376806, 27.167258554891138], [-80.24499257321855, 27.168214480200152], [-80.24762507158134, 27.168234124824178], [-80.24730733929987, 27.167459451798816], [-80.25002698650982, 27.166401213103832], [-80.24865595132202, 27.16309294150869], [-80.24856037910826, 27.16312818982468], [-80.24758580048507, 27.160787554250504], [-80.2501786859092, 27.159805651263163], [-80.25069386295125, 27.15910420297863], [-80.25072756993328, 27.158661506943712], [-80.24938056603487, 27.158208681107432], [-80.24868306617758, 27.158122424801856], [-80.24784893571426, 27.158233489054016], [-80.24668986737089, 27.158648141022745], [-80.2458822023659, 27.15664948620108], [-80.24196640481634, 27.158177077350526], [-80.24283981276224, 27.159994556730307], [-80.23024704739314, 27.164858177043], [-80.22995566941327, 27.164295420431237], [-80.23010367869459, 27.164238466474412], [-80.22973995024068, 27.1634635028373], [-80.22843877302577, 27.163954243231245], [-80.22833567018712, 27.16374186671896], [-80.22702831443588, 27.164235310654192], [-80.22764684905788, 27.1655205767095], [-80.227906603726, 27.165761323591664], [-80.22680242119199, 27.16622287363432], [-80.22629147444952, 27.165392074679524], [-80.22561616199599, 27.165652422834498], [-80.22463386193144, 27.16360592552657], [-80.22391229472811, 27.163885265415907], [-80.2236848845196, 27.163416376265744], [-80.2248011242912, 27.162987926228624], [-80.22448783393548, 27.162485554516497], [-80.22498826032029, 27.162163728540232], [-80.22767079103232, 27.161146980356822], [-80.2272732054069, 27.160380076360255], [-80.22322215412764, 27.153843877496467], [-80.22143076551538, 27.15452989627976], [-80.22045153757759, 27.152508143219144], [-80.21926760453681, 27.15295543948681], [-80.21962651152423, 27.153524094966986], [-80.219053075129, 27.153735465388884], [-80.21623384564303, 27.149238740088155], [-80.2167919279892, 27.149021793551476], [-80.21704751133832, 27.149411078640266], [-80.2176148367741, 27.14919142961242], [-80.21737466443717, 27.14879672990735], [-80.21885771765777, 27.148221827414346], [-80.21768392030074, 27.14633651066497], [-80.21195828884873, 27.14855461392154], [-80.21291309690642, 27.150524022814363], [-80.21361919032161, 27.150250152901656], [-80.21388898445079, 27.150804569490166], [-80.21427132937511, 27.15065541808359], [-80.21400153367733, 27.150101002185743], [-80.21422969002211, 27.150014255022853], [-80.21449641177593, 27.150568653298986], [-80.21469376219133, 27.150489985295227], [-80.21530241613512, 27.150518146590358], [-80.21602590546956, 27.15171602513811], [-80.215652841496, 27.151856980836047], [-80.21578314234208, 27.152132786218473], [-80.21593362181906, 27.15216113471912], [-80.21609121412044, 27.152492107733792], [-80.21677265570811, 27.152226336718424], [-80.21738499344943, 27.15349235731933], [-80.21229721582448, 27.155471954444817], [-80.2141967731585, 27.156915755307512], [-80.21485354952502, 27.156663609999576], [-80.21495054726046, 27.156864958895927], [-80.214398610784, 27.15707643006746], [-80.21631021571143, 27.15856428261353], [-80.2189396380517, 27.16031743032459], [-80.22043987457067, 27.16171766328345], [-80.21820428638978, 27.162577218380413], [-80.22257155709123, 27.16697520929571], [-80.22356442384715, 27.166603852369803], [-80.22376425668173, 27.167058835167047], [-80.22589812461372, 27.166239893055955], [-80.22626587389475, 27.166428974123637], [-80.22647809468486, 27.166873018470056], [-80.22707324561529, 27.16664248315392], [-80.22783468917835, 27.168167852505544], [-80.22817388868697, 27.16803768211507], [-80.22848719169474, 27.16854279654092], [-80.2273801734854, 27.168965824187747], [-80.22772584732277, 27.169682927808648], [-80.22891305884511, 27.16922732913512], [-80.22928063026788, 27.16989228478608], [-80.22931287310652, 27.17012352664831], [-80.2266979135369, 27.17112416976201], [-80.23636292098986, 27.180837824192984], [-80.23648975109153, 27.180280108607683], [-80.23649548029661, 27.179438404363996], [-80.2367510809245, 27.179393032529504], [-80.23678747159839, 27.18127750755124], [-80.23676738804564, 27.18287284406381], [-80.22618979325149, 27.182812125825386], [-80.2261269373317, 27.18657207283353], [-80.22444748811525, 27.18656554483858], [-80.22443085995842, 27.187635499301983], [-80.22458095175624, 27.187727104541537], [-80.22438226694284, 27.18799007878401], [-80.22439277536465, 27.19002845102535], [-80.22430843003295, 27.190215036159966], [-80.22429822950441, 27.19168938735615], [-80.2236543891693, 27.191823361737846], [-80.22259039073735, 27.191773453920483], [-80.22226026433225, 27.191914662523182], [-80.2221786238792, 27.19171065342992], [-80.22126325065011, 27.191521271308396], [-80.22127255454686, 27.193724680705927], [-80.22017128236013, 27.1937240608737], [-80.22019015823051, 27.191894911652444], [-80.21201425638428, 27.191827193068164], [-80.21200547889914, 27.19307598659751], [-80.21164250522438, 27.193073946025617], [-80.2116273768525, 27.19347547114806], [-80.21200267539767, 27.193474830298435], [-80.21198146500421, 27.19692965827315], [-80.213948739175, 27.196272269670125], [-80.21604572476525, 27.19597867816596], [-80.21603995136216, 27.19724399325309], [-80.2201281204565, 27.197275048274793], [-80.22011232191434, 27.19866134150887], [-80.21893736419803, 27.198632793703148], [-80.21774914262613, 27.198741699791324], [-80.21771265050681, 27.198680979538366], [-80.21593459844988, 27.199551287012344], [-80.21629109347677, 27.2000429147939], [-80.21675095355694, 27.200271046914516], [-80.21994077656657, 27.200324594123078], [-80.21993214796606, 27.20112226507549], [-80.22009517139793, 27.201125922976164], [-80.22008501965949, 27.203026637925532], [-80.22074948729225, 27.203033084379452], [-80.22071686994234, 27.20551133239506], [-80.22197163730846, 27.20513319784084], [-80.22208519625512, 27.20517233872995], [-80.22277208937366, 27.205052365551953], [-80.22334910837215, 27.204805245466517], [-80.2236288491828, 27.204837053596826], [-80.2246082039719, 27.20468843274873], [-80.22462784447913, 27.203183878075894], [-80.22414178359209, 27.203181188406123], [-80.22416951407149, 27.200953229402515], [-80.22482094803584, 27.20061849036854], [-80.22599688164891, 27.199618211227833], [-80.22599964110495, 27.212134163532482], [-80.25692552058115, 27.2123098166235], [-80.25691375390615, 27.2150110043902], [-80.256186432915, 27.21519144660052], [-80.25557111380319, 27.21518542820168], [-80.25502262199532, 27.215309048252717], [-80.25502221947578, 27.215369562889283], [-80.2553174904079, 27.21538488623223], [-80.25531082898101, 27.21592400029097], [-80.25539752977389, 27.216304066258985], [-80.2556842367141, 27.216682443986876], [-80.25571039169665, 27.216913646951188], [-80.25446079874186, 27.217435149900915], [-80.25020516542368, 27.218864842644816], [-80.25021261034627, 27.21959108294285], [-80.2488802622507, 27.219597700339026], [-80.24779477974731, 27.220414353525758], [-80.2469261347955, 27.220555477344664], [-80.24652979777545, 27.22046807295612], [-80.24610979129768, 27.220240251467427], [-80.24396644412703, 27.220963153968118], [-80.24396581247593, 27.222423802020547], [-80.24518440577631, 27.22195174122772], [-80.24661828077163, 27.221951206920995], [-80.24661948832615, 27.222229039859155], [-80.24564048661064, 27.222306294548257], [-80.24456509836595, 27.222531563494883], [-80.24455725393062, 27.22506221621411], [-80.24864961853832, 27.22508147418093], [-80.24864358047972, 27.2232301824519], [-80.25266218300153, 27.22322692049988], [-80.25359956860423, 27.22200782998269], [-80.25461797698462, 27.22201875351846], [-80.2546198081234, 27.221743687270802], [-80.25492749475124, 27.22174532392619], [-80.25523516310903, 27.221749710568883], [-80.25523333348141, 27.222024776854873], [-80.25554100263582, 27.222029162841448], [-80.25554283150798, 27.22175409653636], [-80.25585973055037, 27.221758530857027], [-80.25586166830162, 27.22146696054086], [-80.25531710081384, 27.22145856553266], [-80.2553200352586, 27.219629325283144], [-80.2589688225734, 27.219695434210994], [-80.25894603034348, 27.22220950997927], [-80.26098897161481, 27.222236805803604], [-80.26099097734314, 27.222399111344707], [-80.26029563692822, 27.222389940222598], [-80.26029381968188, 27.222665006799502], [-80.26013997491359, 27.222664194423412], [-80.26014179253778, 27.222389127856054], [-80.25837573227771, 27.222368787129923], [-80.25832658491161, 27.227000807080643], [-80.25400047187308, 27.22695307860739], [-80.25400381042785, 27.225990331121004], [-80.25560380505738, 27.226004343929368], [-80.25530693862738, 27.22437431685344], [-80.25367630805815, 27.22434363323947], [-80.25368364244015, 27.223243368785013], [-80.25813246950524, 27.22332476394528], [-80.25814190717794, 27.22236479839802], [-80.25755118165459, 27.222356167582614], [-80.25755171060557, 27.22227639832252], [-80.25738900069136, 27.22222052073683], [-80.25631831927429, 27.22220383832742], [-80.25631649227189, 27.2224789046634], [-80.25600882180862, 27.222474520354755], [-80.25600790791994, 27.222612053509103], [-80.2550387239929, 27.222601401754982], [-80.25504146920947, 27.222188802374163], [-80.25359540986746, 27.2221701026336], [-80.25359471306882, 27.22227462777819], [-80.25284370207635, 27.22323063945407], [-80.25285586146889, 27.226941476866028], [-80.25276353287651, 27.22694373514842], [-80.25261457770146, 27.245100665707238], [-80.26073876879732, 27.24520981287467], [-80.26079570039879, 27.239854395074257], [-80.26283288256377, 27.239870635265248], [-80.26384320126337, 27.239732910676484], [-80.26399719750778, 27.240182093405203], [-80.26390721150595, 27.240294401432084], [-80.26380866323565, 27.240772514933326], [-80.26401852449631, 27.241150471626213], [-80.26415592225388, 27.241316239042572], [-80.26425132199265, 27.241316740317217]]], [[[-80.21367793586634, 27.156791815082855], [-80.21292123100541, 27.157260705133307], [-80.21327239671793, 27.15761477282832], [-80.21423138312504, 27.15724329070518], [-80.21367793586634, 27.156791815082855]]]]}}
