{"type": "FeatureCollection", "features": [{"type": "Feature", "properties": {"precinct": "7", "poll_place": "Women's Club of Stuart - 729 SE Ocean Blvd, Stuart"}, "geometry": {"type": "Polygon", "coordinates": [[[-80.2644395489268, 27.18783182943046], [-80.26459190248801, 27.190866734585523], [-80.26436368634018, 27.192361959051247], [-80.26320231086598, 27.195890604838446], [-80.263111480782, 27.197540591059035], [-80.26329519329961, 27.199076487495116], [-80.26190860682975, 27.20081593312625], [-80.25991854142804, 27.202623698921713], [-80.25829490623111, 27.20158357841167], [-80.25836464195652, 27.202202870417796], [-80.25827730304907, 27.202383959019183], [-80.25800634863424, 27.202418284948923], [-80.25837501706, 27.203889146428665], [-80.25452175582139, 27.20642691788525], [-80.25360636583584, 27.206675116357914], [-80.25208105376586, 27.207497715843413], [-80.25410570304226, 27.212293800598243], [-80.22599964110495, 27.212134163532482], [-80.22599688164891, 27.199618211227833], [-80.22482094803584, 27.20061849036854], [-80.22415696142414, 27.200988919760754], [-80.22413001151544, 27.203104102082428], [-80.22456830157329, 27.20318354858887], [-80.22453480877911, 27.204624759318982], [-80.22247404271036, 27.204998448122087], [-80.22071686994234, 27.20551133239506], [-80.22074948729225, 27.203033084379452], [-80.22017924658651, 27.20302755208525], [-80.22019721047688, 27.200609348715634], [-80.21993777718856, 27.20060187161541], [-80.21994077656657, 27.200324594123078], [-80.21675095355694, 27.200271046914516], [-80.21629109347677, 27.2000429147939], [-80.21593459844988, 27.199551287012344], [-80.21771025592146, 27.19868215162189], [-80.22011232191434, 27.19866134150887], [-80.2201281204565, 27.197275048274793], [-80.21603995136216, 27.19724399325309], [-80.21604572476525, 27.19597867816596], [-80.213948739175, 27.196272269670125], [-80.21198146500421, 27.19692965827315], [-80.21209553714638, 27.193392829560604], [-80.21163067556445, 27.193387919379276], [-80.21164250522438, 27.193073946025617], [-80.21200547889914, 27.19307598659751], [-80.21206936601762, 27.191827649525006], [-80.22014164940853, 27.191894509868174], [-80.22017128236013, 27.1937240608737], [-80.22127255454686, 27.193724680705927], [-80.22126325065011, 27.191521271308396], [-80.2221786238792, 27.19171065342992], [-80.22226026433225, 27.191914662523182], [-80.22259039073735, 27.191773453920483], [-80.2240765898053, 27.191735507550906], [-80.22414870291875, 27.19373787602628], [-80.23143208373956, 27.193890774236056], [-80.2319586784929, 27.193808386436668], [-80.24938500748289, 27.193861508263517], [-80.24367127069091, 27.188114705133927], [-80.24326906573866, 27.18800250432625], [-80.24250493270364, 27.187280427739903], [-80.23678335080103, 27.181604842986197], [-80.2367510809245, 27.179393032529504], [-80.23663532288857, 27.17941358081411], [-80.23670511435411, 27.178011895867012], [-80.23900292037773, 27.17616761166224], [-80.23975329329625, 27.17572880660349], [-80.24047087481702, 27.175589654061046], [-80.24169887602845, 27.175593617915833], [-80.2416969011, 27.175764084911467], [-80.2420013664413, 27.17576848141081], [-80.24200490966012, 27.175596952298704], [-80.24254382269021, 27.17560086396936], [-80.24242763722565, 27.17378421643554], [-80.24332263097806, 27.17367952585531], [-80.24340526683804, 27.171979037489486], [-80.24587430450448, 27.172015294567746], [-80.24572705394037, 27.171854856447908], [-80.24897876933318, 27.171839395716255], [-80.24897235856072, 27.174681005317744], [-80.24834406467421, 27.174762822132497], [-80.24793911806958, 27.175065987585853], [-80.24793276039497, 27.175555591519945], [-80.2470689432251, 27.17548768933988], [-80.24705535905909, 27.17384540354562], [-80.24693623677099, 27.17384382539045], [-80.2469057281326, 27.17368505527279], [-80.24416206795112, 27.173711559442683], [-80.24416064897456, 27.17380705386514], [-80.24390924340321, 27.173803723195384], [-80.24389528827369, 27.174961723938765], [-80.24320330259846, 27.174955241239036], [-80.24319653462427, 27.17550260868482], [-80.24295969571973, 27.17550408135698], [-80.24295476402555, 27.175779132082162], [-80.2448516254972, 27.175746277286933], [-80.2448719329372, 27.179285699751663], [-80.24903261257549, 27.179418071011508], [-80.24908159929768, 27.177154445739273], [-80.24991192981287, 27.177172642677043], [-80.2499838051382, 27.176543099442185], [-80.25049434010165, 27.17654857932332], [-80.25049928340589, 27.175808646989267], [-80.2506284587151, 27.175809337194334], [-80.25062581296486, 27.176205434822172], [-80.25081034978025, 27.176206420639776], [-80.25081378472449, 27.175692043833113], [-80.25233322288746, 27.17568639759696], [-80.25177814778361, 27.173136217988663], [-80.25241921038707, 27.173120954571157], [-80.2527469129446, 27.17499265555088], [-80.25382292766092, 27.175064402546898], [-80.2538219963673, 27.175578792779127], [-80.25302600225787, 27.175574556128584], [-80.25301981192715, 27.176504285781743], [-80.25264720342389, 27.176571070291967], [-80.25249470165956, 27.176839833719058], [-80.25249647599308, 27.17703514830438], [-80.25292704696136, 27.177040193168818], [-80.25293599738751, 27.177543632940274], [-80.25310754617459, 27.177546036180292], [-80.25309855861029, 27.18084542970321], [-80.25323931222846, 27.180844689498187], [-80.25323813819959, 27.181132253619378], [-80.25694429179944, 27.18117119462341], [-80.25698764393513, 27.179906066996196], [-80.25718642852272, 27.17990712002152], [-80.2572047337891, 27.17714268550863], [-80.25989310706017, 27.177167869735044], [-80.26237448512465, 27.180974296880677], [-80.26400280428219, 27.183136711492423], [-80.26476141067664, 27.185893857261508], [-80.26488320941347, 27.187831301162653], [-80.2644395489268, 27.18783182943046]]]}}, {"type": "Feature", "properties": {"precinct": "8", "poll_place": "10th Street Recreation Center - 724 SE 10th St, Stuart"}, "geometry": {"type": "Polygon", "coordinates": [[[-80.23678335080103, 27.181604842986197], [-80.24326906573866, 27.18800250432625], [-80.24367127069091, 27.188114705133927], [-80.24938500748289, 27.193861508263517], [-80.2319586784929, 27.193808386436668], [-80.23143208373956, 27.193890774236056], [-80.22414870291875, 27.19373787602628], [-80.2240765898053, 27.191735507550906], [-80.22429822950441, 27.19168938735615], [-80.22438226694284, 27.18799007878401], [-80.22458095175624, 27.187727104541537], [-80.22443085995842, 27.187635499301983], [-80.22444748811525, 27.18656554483858], [-80.2261269373317, 27.18657207283353], [-80.22615193010972, 27.185077042273367], [-80.22990813686813, 27.184216229122093], [-80.2333681176259, 27.18285333133754], [-80.23676738804564, 27.18287284406381], [-80.23678335080103, 27.181604842986197]]]}}, {"type": "Feature", "properties": {"precinct": "11", "poll_place": "Robert Morgade Library - 5851 SE Community Dr, Stuart"}, "geometry": {"type": "Polygon", "coordinates": [[[-80.21656087337895, 27.14908377181495], [-80.21540574697865, 27.14721907247621], [-80.21768392030074, 27.14633651066497], [-80.21885771765777, 27.148221827414346], [-80.21737466443717, 27.14879672990735], [-80.2176148367741, 27.14919142961242], [-80.21704751133832, 27.149411078640266], [-80.2167919279892, 27.149021793551476], [-80.21656087337895, 27.14908377181495]]]}}, {"type": "Feature", "properties": {"precinct": "1", "poll_place": "Hoke Library - 1150 Jack Williams Way, Jensen Beach"}, "geometry": {"type": "Polygon", "coordinates": [[[-80.25261457770146, 27.245100665707238], [-80.2527655082272, 27.2271087911195], [-80.26535432738646, 27.22706259643056], [-80.26573420072026, 27.22806708418472], [-80.26546468420509, 27.228064452379293], [-80.26588512380049, 27.22917521325984], [-80.26519538885181, 27.229243116529883], [-80.26308784487064, 27.228725905016482], [-80.2612492950716, 27.22895003529535], [-80.26134416720998, 27.229495185997223], [-80.26172301140289, 27.229442168067962], [-80.26179730801884, 27.22984141976773], [-80.26233018911417, 27.22976170432788], [-80.26256762891394, 27.2301535624374], [-80.26352536864482, 27.230978327781358], [-80.26365379428644, 27.231570416283784], [-80.26341784881771, 27.232820771088523], [-80.26360354758691, 27.2331270817851], [-80.26383989377331, 27.233219099262193], [-80.2640245250576, 27.23322006956374], [-80.26402370899933, 27.23287622040012], [-80.2644117228046, 27.232834246591686], [-80.26464091600545, 27.23260988783092], [-80.26491233362718, 27.23204740684832], [-80.2649677343849, 27.231577317661863], [-80.26597959162565, 27.231662396017445], [-80.26599175300305, 27.230746456527147], [-80.26648099732778, 27.23075177022999], [-80.26717065828603, 27.23257638373171], [-80.26698602793306, 27.232575417598238], [-80.26695864269925, 27.234407280362806], [-80.26786334631947, 27.234412012561364], [-80.26953320860768, 27.23882744858207], [-80.268951608204, 27.238821662941813], [-80.26742862627076, 27.239237321060454], [-80.26761067480555, 27.23963438239465], [-80.26821576557916, 27.240283973752835], [-80.26830663116112, 27.24097763947643], [-80.2686001041972, 27.241749384682365], [-80.26855220617121, 27.24389747560089], [-80.26834993875372, 27.244237512643277], [-80.26776803883261, 27.24474336071941], [-80.26758896475255, 27.2453008275443], [-80.26387459564042, 27.24525109084073], [-80.2638981837382, 27.244940379612927], [-80.26374820045493, 27.244815807107532], [-80.26470097271434, 27.244075359146716], [-80.2647137127791, 27.24354177955939], [-80.26481219190022, 27.2435422966497], [-80.26457889743398, 27.242982668246754], [-80.26409481254547, 27.24265278511958], [-80.26441882806704, 27.242052072115854], [-80.26425132199265, 27.241316740317217], [-80.26380866323565, 27.240772514933326], [-80.26399719750778, 27.240182093405203], [-80.26384320126337, 27.239732910676484], [-80.26283288256377, 27.239870635265248], [-80.26079570039879, 27.239854395074257], [-80.26073876879732, 27.24520981287467], [-80.25261457770146, 27.245100665707238]]]}}, {"type": "Feature", "properties": {"precinct": "6", "poll_place": "Covenant Fellowship Church - 2880 SE Aster Lane, Stuart"}, "geometry": {"type": "MultiPolygon", "coordinates": [[[[-80.24169887602845, 27.175593617915833], [-80.23986431282641, 27.175685395955828], [-80.23920999314215, 27.176020193332935], [-80.23670511435411, 27.178011895867012], [-80.23663532288857, 27.17941358081411], [-80.23649548029661, 27.179438404363996], [-80.23636292098986, 27.180837824192984], [-80.2266979135369, 27.17112416976201], [-80.22931287310652, 27.17012352664831], [-80.22891305884511, 27.16922732913512], [-80.22772584732277, 27.169682927808648], [-80.2273801734854, 27.168965824187747], [-80.22848719169474, 27.16854279654092], [-80.22817388868697, 27.16803768211507], [-80.22783468917835, 27.168167852505544], [-80.22707324561529, 27.16664248315392], [-80.22647809468486, 27.166873018470056], [-80.22626587389475, 27.166428974123637], [-80.22589812461372, 27.166239893055955], [-80.22376425668173, 27.167058835167047], [-80.22356442384715, 27.166603852369803], [-80.22257155709123, 27.16697520929571], [-80.21820428638978, 27.162577218380413], [-80.22043987457067, 27.16171766328345], [-80.2189396380517, 27.16031743032459], [-80.21631021571143, 27.15856428261353], [-80.214398610784, 27.15707643006746], [-80.21495054726046, 27.156864958895927], [-80.21485354952502, 27.156663609999576], [-80.2141967731585, 27.156915755307512], [-80.21229721582448, 27.155471954444817], [-80.21738499344943, 27.15349235731933], [-80.21677265570811, 27.152226336718424], [-80.21609121412044, 27.152492107733792], [-80.21593362181906, 27.15216113471912], [-80.21578314234208, 27.152132786218473], [-80.215652841496, 27.151856980836047], [-80.21602590546956, 27.15171602513811], [-80.21530241613512, 27.150518146590358], [-80.21449641177593, 27.150568653298986], [-80.21422969002211, 27.150014255022853], [-80.21400153367733, 27.150101002185743], [-80.21427132937511, 27.15065541808359], [-80.21388898445079, 27.150804569490166], [-80.21361919032161, 27.150250152901656], [-80.21291309690642, 27.150524022814363], [-80.21195828884873, 27.14855461392154], [-80.21540574697865, 27.14721907247621], [-80.21657498669116, 27.149106126380847], [-80.21623384564303, 27.149238740088155], [-80.219053075129, 27.153735465388884], [-80.21962651152423, 27.153524094966986], [-80.21926760453681, 27.15295543948681], [-80.22045153757759, 27.152508143219144], [-80.22143076551538, 27.15452989627976], [-80.22322215412764, 27.153843877496467], [-80.22767079103232, 27.161146980356822], [-80.22498826032029, 27.162163728540232], [-80.22448783393548, 27.162485554516497], [-80.2248011242912, 27.162987926228624], [-80.2236848845196, 27.163416376265744], [-80.22391229472811, 27.163885265415907], [-80.22463386193144, 27.16360592552657], [-80.22561616199599, 27.165652422834498], [-80.22629147444952, 27.165392074679524], [-80.22680242119199, 27.16622287363432], [-80.227906603726, 27.165761323591664], [-80.22764684905788, 27.1655205767095], [-80.22702831443588, 27.164235310654192], [-80.22833567018712, 27.16374186671896], [-80.22843877302577, 27.163954243231245], [-80.22973995024068, 27.1634635028373], [-80.23010367869459, 27.164238466474412], [-80.22995566941327, 27.164295420431237], [-80.23024704739314, 27.164858177043], [-80.24283981276224, 27.159994556730307], [-80.24196640481634, 27.158177077350526], [-80.2458822023659, 27.15664948620108], [-80.24668986737089, 27.158648141022745], [-80.24784893571426, 27.158233489054016], [-80.24868306617758, 27.158122424801856], [-80.24938056603487, 27.158208681107432], [-80.25072756993328, 27.158661506943712], [-80.25069386295125, 27.15910420297863], [-80.2501786859092, 27.159805651263163], [-80.24758580048507, 27.160787554250504], [-80.25002698650982, 27.166401213103832], [-80.24730733929987, 27.167459451798816], [-80.24762507158134, 27.168234124824178], [-80.24499257321855, 27.168214480200152], [-80.2447314376806, 27.167258554891138], [-80.24348478016066, 27.164682611787065], [-80.23903329987476, 27.166245735829875], [-80.24006511184808, 27.168289653381283], [-80.23992942214427, 27.16834393378573], [-80.2409443197423, 27.168346678038617], [-80.24075340271553, 27.173836190539387], [-80.24171904853644, 27.173852417208], [-80.24169887602845, 27.175593617915833]]], [[[-80.24242763722565, 27.17378421643554], [-80.24254382269021, 27.17560086396936], [-80.24200490966012, 27.175596952298704], [-80.24204250082973, 27.173777143741816], [-80.24242763722565, 27.17378421643554]]], [[[-80.24340760974725, 27.17202401789294], [-80.24332263097806, 27.17367952585531], [-80.24289249811291, 27.173702226953463], [-80.24291586484001, 27.171971850767797], [-80.24340760974725, 27.17202401789294]]], [[[-80.24897876933318, 27.171839395716255], [-80.24572705394037, 27.171854856447908], [-80.24533388231053, 27.17142647291373], [-80.2450430408653, 27.170770223244403], [-80.24500991527101, 27.1683796201535], [-80.25092998217804, 27.168422358794], [-80.25218800857903, 27.172093108002922], [-80.24899891703527, 27.172045811866948], [-80.24897849231547, 27.174072399942553], [-80.24897876933318, 27.171839395716255]]], [[[-80.24897497988837, 27.17424355423612], [-80.24897716553471, 27.17420404620777], [-80.24897642083413, 27.174277937127666], [-80.24897497988837, 27.17424355423612]]], [[[-80.24897144466351, 27.17477168431906], [-80.2488920690389, 27.1746832344576], [-80.24897235856072, 27.174681005317744], [-80.24897144466351, 27.17477168431906]]], [[[-80.24416206795112, 27.173711559442683], [-80.2469057281326, 27.17368505527279], [-80.24693623677099, 27.17384382539045], [-80.24416064897456, 27.17380705386514], [-80.24416206795112, 27.173711559442683]]], [[[-80.24487647793715, 27.1785104154165], [-80.2448516254972, 27.175746277286933], [-80.2448926864938, 27.17574556608548], [-80.24487647793715, 27.1785104154165]]], [[[-80.24494265538202, 27.179288831291668], [-80.24493674922593, 27.179286354753135], [-80.2449583867108, 27.17928657341089], [-80.24494265538202, 27.179288831291668]]], [[[-80.24991192981287, 27.177172642677043], [-80.24908159929768, 27.177154445739273], [-80.24903261257549, 27.179418071011508], [-80.24665324049376, 27.17930370076795], [-80.24893787363484, 27.17932678814454], [-80.24894675000799, 27.17708220355064], [-80.24991192981287, 27.177172642677043]]], [[[-80.25241921038707, 27.173120954571157], [-80.25177814778361, 27.173136217988663], [-80.25233322288746, 27.17568639759696], [-80.25190804750426, 27.175679547438108], [-80.25147830559258, 27.172900802168368], [-80.2523824729676, 27.17291112568075], [-80.25241921038707, 27.173120954571157]]], [[[-80.25382292766092, 27.175064402546898], [-80.25292179983586, 27.175056855029442], [-80.25291455012344, 27.174993946710863], [-80.25390331357859, 27.175001562275696], [-80.25389947216863, 27.175579205141343], [-80.25382292766092, 27.175064402546898]]], [[[-80.25302032601891, 27.175965136248404], [-80.25299444042226, 27.175695422234583], [-80.25302314518645, 27.17600366147714], [-80.25302032601891, 27.175965136248404]]], [[[-80.25281951170545, 27.176560985208706], [-80.25297021732392, 27.176561787963973], [-80.25301981192715, 27.176504285781743], [-80.25301933574785, 27.176575803449364], [-80.25281951170545, 27.176560985208706]]], [[[-80.25257858801295, 27.176840280748326], [-80.25264750001361, 27.17663354287451], [-80.25264848327375, 27.176840653219244], [-80.25257858801295, 27.176840280748326]]], [[[-80.25309855861029, 27.18084542970321], [-80.25310754617459, 27.177546036180292], [-80.25325277122906, 27.177548070649138], [-80.25323931222846, 27.180844689498187], [-80.25309855861029, 27.18084542970321]]], [[[-80.25698764393513, 27.179906066996196], [-80.2569465838777, 27.180825193437354], [-80.25695267384047, 27.179905881748457], [-80.25698764393513, 27.179906066996196]]]]}}, {"type": "Feature", "properties": {"precinct": "24", "poll_place": "Palm City Community Center - 2701 SW Cornell Ave, Palm City"}, "geometry": {"type": "MultiPolygon", "coordinates": [[[[-80.26476141067664, 27.185893857261508], [-80.26400280428219, 27.183136711492423], [-80.26237448512465, 27.180974296880677], [-80.25989310706017, 27.177167869735044], [-80.26258389414897, 27.17719307657369], [-80.2630612959783, 27.17802907212633], [-80.26454831400586, 27.18250414357588], [-80.26476141067664, 27.185893857261508]]], [[[-80.26357135457475, 27.199652849886583], [-80.263203066359, 27.19858361512371], [-80.263111480782, 27.197540591059035], [-80.26320231086598, 27.195890604838446], [-80.26448684706178, 27.191875718041963], [-80.2646068137184, 27.190000318459088], [-80.26436265037823, 27.187831426015077], [-80.26488320941347, 27.187831301162653], [-80.26509149162953, 27.191144431657346], [-80.26512625843314, 27.202918355589873], [-80.26357135457475, 27.199652849886583]]]]}}, {"type": "Feature", "properties": {"precinct": "13", "poll_place": "Peace Presbyterian Church - 4881 SE Cove Rd, Stuart"}, "geometry": {"type": "Polygon", "coordinates": [[[-80.21423138312504, 27.15724329070518], [-80.21327239671793, 27.15761477282832], [-80.21292123100541, 27.157260705133307], [-80.21367793586634, 27.156791815082855], [-80.21423138312504, 27.15724329070518]]]}}, {"type": "Feature", "properties": {"precinct": "5", "poll_place": "Blake Library - 2351 SE Monterey Rd, Stuart"}, "geometry": {"type": "MultiPolygon", "coordinates": [[[[-80.22599752670358, 27.20254395942281], [-80.22601447386145, 27.203307073643728], [-80.22599834785754, 27.2062684339694], [-80.22599752670358, 27.20254395942281]]], [[[-80.22414275208735, 27.203103376273795], [-80.22412343870228, 27.202276088169075], [-80.2241691543821, 27.20098212804594], [-80.22414275208735, 27.203103376273795]]], [[[-80.22340842981224, 27.204811990653578], [-80.22453480877911, 27.204624759318982], [-80.22462784447913, 27.203183878075894], [-80.2246082039719, 27.20468843274873], [-80.22340842981224, 27.204811990653578]]], [[[-80.22198092376628, 27.20512499712806], [-80.22247404271036, 27.204998448122087], [-80.223170788444, 27.20488161459127], [-80.22277208937366, 27.205052365551953], [-80.22198092376628, 27.20512499712806]]], [[[-80.21993777718856, 27.20060187161541], [-80.22019721047688, 27.200609348715634], [-80.22017924658651, 27.20302755208525], [-80.22008501965949, 27.203026637925532], [-80.22009517139793, 27.201125922976164], [-80.21993214796606, 27.20112226507549], [-80.21993777718856, 27.20060187161541]]], [[[-80.21771025592146, 27.19868215162189], [-80.21771265050681, 27.198680979538366], [-80.2177133814649, 27.198682195799872], [-80.21771025592146, 27.19868215162189]]], [[[-80.22003826323339, 27.19869393853712], [-80.219499811885, 27.198707446094218], [-80.21830684160777, 27.198690584060127], [-80.21893736419803, 27.198632793703148], [-80.22003826323339, 27.19869393853712]]], [[[-80.21209553714638, 27.193392829560604], [-80.21203365060713, 27.193882116095818], [-80.21199320772149, 27.195016960696957], [-80.21200267539767, 27.193474830298435], [-80.2116273768525, 27.19347547114806], [-80.21163067556445, 27.193387919379276], [-80.21209553714638, 27.193392829560604]]], [[[-80.21203124730168, 27.192911086126873], [-80.21201425638428, 27.191827193068164], [-80.21206936601762, 27.191827649525006], [-80.21203124730168, 27.192911086126873]]], [[[-80.22018068633798, 27.192812776868198], [-80.22014164940853, 27.191894509868174], [-80.22019015823051, 27.191894911652444], [-80.22018068633798, 27.192812776868198]]], [[[-80.2333681176259, 27.18285333133754], [-80.22990813686813, 27.184216229122093], [-80.22615193010972, 27.185077042273367], [-80.22618979325149, 27.182812125825386], [-80.2333681176259, 27.18285333133754]]]]}}, {"type": "Feature", "properties": {"precinct": "29", "poll_place": "Jensen Beach Community Church - 3900 NE Skyline Dr, Jensen Beach"}, "geometry": {"type": "MultiPolygon", "coordinates": [[[[-80.24661854674075, 27.222012400831282], [-80.25352088336643, 27.22211016185867], [-80.25266218300153, 27.22322692049988], [-80.24864358047972, 27.2232301824519], [-80.24864961853832, 27.22508147418093], [-80.24455725393062, 27.22506221621411], [-80.24456509836595, 27.222531563494883], [-80.24661948832615, 27.222229039859155], [-80.24661854674075, 27.222012400831282]]], [[[-80.26535432738646, 27.22706259643056], [-80.2528547415847, 27.227109267086302], [-80.25261457770146, 27.245100665707238], [-80.25284370207635, 27.22323063945407], [-80.25359540986746, 27.2221701026336], [-80.25504146920947, 27.222188802374163], [-80.2550387239929, 27.222601401754982], [-80.25601096653315, 27.222614820512057], [-80.25601188041819, 27.22247728735766], [-80.25631955088936, 27.222481671659764], [-80.25632139594431, 27.222203886265365], [-80.25814190717794, 27.22236479839802], [-80.25813246950524, 27.22332476394528], [-80.25368364244015, 27.223243368785013], [-80.25367630805815, 27.22434363323947], [-80.25530693862738, 27.22437431685344], [-80.25560380505738, 27.226004343929368], [-80.25400381042785, 27.225990331121004], [-80.25400047187308, 27.22695307860739], [-80.25832658491161, 27.227000807080643], [-80.25837573227771, 27.222368787129923], [-80.26014179253778, 27.222389127856054], [-80.26013997491359, 27.222664194423412], [-80.26029380150929, 27.22266775746522], [-80.26029871365525, 27.222389980802777], [-80.26099097734314, 27.222399111344707], [-80.26098897161481, 27.222236805803604], [-80.26029987683533, 27.222213913853132], [-80.26222588919913, 27.222241812667672], [-80.2622247373834, 27.22241661696153], [-80.26364434525638, 27.22242849064258], [-80.26400188513938, 27.223397435061383], [-80.2636983363054, 27.22339538863906], [-80.26508054486808, 27.227050157293732], [-80.26535432738646, 27.22706259643056]]], [[[-80.25894618985234, 27.22219191550264], [-80.26014595048062, 27.22222554216274], [-80.25894603034348, 27.22220950997927], [-80.25894618985234, 27.22219191550264]]]]}}, {"type": "Feature", "properties": {"precinct": "2", "poll_place": "Grace Presbyterian Church - 1875 NW Britt Rd, Stuart"}, "geometry": {"type": "MultiPolygon", "coordinates": [[[[-80.26573420072026, 27.22806708418472], [-80.26535104314799, 27.22705369604015], [-80.26683435619199, 27.22707310122352], [-80.26674062615304, 27.226819540490148], [-80.26689445884644, 27.226823096399475], [-80.26677949609147, 27.226522661602182], [-80.26915179660422, 27.226546061534282], [-80.26910472532931, 27.22809999706556], [-80.26573420072026, 27.22806708418472]]], [[[-80.26129172648223, 27.21645629801188], [-80.259565662238, 27.21133076505203], [-80.258689302741, 27.205676057437977], [-80.25800634863424, 27.202418284948923], [-80.25827730304907, 27.202383959019183], [-80.25836464195652, 27.202202870417796], [-80.25829490623111, 27.20158357841167], [-80.25991854142804, 27.202623698921713], [-80.26190860682975, 27.20081593312625], [-80.26329519329961, 27.199076487495116], [-80.26512625843314, 27.202918355589873], [-80.26516599376147, 27.216374891272093], [-80.26258463967281, 27.216358579225645], [-80.26327715822484, 27.218194231450536], [-80.26409865715173, 27.21819854853413], [-80.26409571078452, 27.21864690770203], [-80.26455722896354, 27.218649330963633], [-80.26454834755825, 27.21906464981104], [-80.2643111448696, 27.219107416741284], [-80.26432204253774, 27.2193220335899], [-80.2639320325407, 27.21967483378444], [-80.26410697720625, 27.219741771101578], [-80.26410111654162, 27.220165357989217], [-80.26295347746368, 27.22015657462267], [-80.26279317625946, 27.21973486441185], [-80.2625856568971, 27.21973500896889], [-80.26129172648223, 27.21645629801188]]], [[[-80.26364434525638, 27.22242849064258], [-80.26399699025839, 27.22243144018545], [-80.26383369559673, 27.22199596165244], [-80.26501818606071, 27.222018685233426], [-80.26491993143811, 27.222455541139315], [-80.26554663472767, 27.223077749774742], [-80.26554139252511, 27.223407813893164], [-80.26400188513938, 27.223397435061383], [-80.26364434525638, 27.22242849064258]]]]}}, {"type": "Feature", "properties": {"precinct": "4", "poll_place": "Langford Park - 2369 NE Dixie Hwy, Jensen Beach"}, "geometry": {"type": "MultiPolygon", "coordinates": [[[[-80.25288509181681, 27.22210029825458], [-80.24518440577631, 27.22195174122772], [-80.24396581247593, 27.222423802020547], [-80.24396644412703, 27.220963153968118], [-80.24610979129768, 27.220240251467427], [-80.2469261347955, 27.220555477344664], [-80.24779477974731, 27.220414353525758], [-80.2488802622507, 27.219597700339026], [-80.25021261034627, 27.21959108294285], [-80.25020516542368, 27.218864842644816], [-80.25571039169665, 27.216913646951188], [-80.2556842367141, 27.216682443986876], [-80.25539752977389, 27.216304066258985], [-80.2553174904079, 27.21538488623223], [-80.25502262199532, 27.215309048252717], [-80.25691375390615, 27.2150110043902], [-80.25692552058115, 27.2123098166235], [-80.25410985418898, 27.212293824175962], [-80.25208722507425, 27.207494998012308], [-80.25361548524592, 27.20669166951601], [-80.2545279636166, 27.206418698606864], [-80.25835360985046, 27.20386977778037], [-80.259565662238, 27.21133076505203], [-80.26129172648223, 27.21645629801188], [-80.26258218943839, 27.219735011384305], [-80.26233163566997, 27.219735185918914], [-80.26305720040669, 27.221694796937935], [-80.26222955853277, 27.221684939497624], [-80.26222588897919, 27.22224184604655], [-80.25894618985234, 27.22219191550264], [-80.2589688225734, 27.219695434210994], [-80.2553200352586, 27.219629325283144], [-80.25531710081384, 27.22145856553266], [-80.25586166830162, 27.22146696054086], [-80.25585973055037, 27.221758530857027], [-80.25554283150798, 27.22175409653636], [-80.25554100263582, 27.222029162841448], [-80.25523333348141, 27.222024776854873], [-80.25523516310903, 27.221749710568883], [-80.2546198081234, 27.221743687270802], [-80.25461797698462, 27.22201875351846], [-80.25288509181681, 27.22210029825458]]], [[[-80.25632137788443, 27.222206605323702], [-80.25631955088936, 27.222481671659764], [-80.25601188041819, 27.22247728735766], [-80.25601096653315, 27.222614820512057], [-80.25504795062895, 27.222601503159737], [-80.25600790791994, 27.222612053509103], [-80.25600882180862, 27.222474520354755], [-80.25631649227189, 27.2224789046634], [-80.25632137788443, 27.222206605323702]]], [[[-80.26029869564384, 27.22239270713404], [-80.26029380150929, 27.22266775746522], [-80.26014305180888, 27.222664210672598], [-80.26029381968188, 27.222665006799502], [-80.26029869564384, 27.22239270713404]]]]}}]}
